<?xml version="1.0" encoding="UTF-8"?>
<ndm xmlns:xsi="https://www.w3.org/2001/XMLSchema-instance" xsi:noNamespaceSchemaLocation="https://sanaregistry.org/r/ndmxml/ndmxml-1.0-master.xsd">
<omm id="CCSDS_OMM_VERS" version="2.0">
<header><CREATION_DATE/><ORIGINATOR/></header><body><segment><metadata><OBJECT_NAME>STARLINK-1606</OBJECT_NAME><OBJECT_ID>2020-057AD</OBJECT_ID><CENTER_NAME>EARTH</CENTER_NAME><REF_FRAME>TEME</REF_FRAME><TIME_SYSTEM>UTC</TIME_SYSTEM><MEAN_ELEMENT_THEORY>SGP4</MEAN_ELEMENT_THEORY></metadata><data><meanElements><EPOCH>2020-09-09T12:00:00.999648</EPOCH><MEAN_MOTION>15.66290085</MEAN_MOTION><ECCENTRICITY>.0001486</ECCENTRICITY><INCLINATION>53.0000</INCLINATION><RA_OF_ASC_NODE>332.3970</RA_OF_ASC_NODE><ARG_OF_PERICENTER>57.1553</ARG_OF_PERICENTER><MEAN_ANOMALY>222.0760</MEAN_ANOMALY></meanElements><tleParameters><EPHEMERIS_TYPE>0</EPHEMERIS_TYPE><CLASSIFICATION_TYPE>U</CLASSIFICATION_TYPE><NORAD_CAT_ID>46144</NORAD_CAT_ID><ELEMENT_SET_NO>999</ELEMENT_SET_NO><REV_AT_EPOCH>412</REV_AT_EPOCH><BSTAR>-.20036E-4</BSTAR><MEAN_MOTION_DOT>-2.672E-5</MEAN_MOTION_DOT><MEAN_MOTION_DDOT>0</MEAN_MOTION_DDOT></tleParameters></data></segment></body></omm>
<omm id="CCSDS_OMM_VERS" version="2.0">
<header><CREATION_DATE/><ORIGINATOR/></header><body><segment><metadata><OBJECT_NAME>STARLINK-1607</OBJECT_NAME><OBJECT_ID>2020-057AE</OBJECT_ID><CENTER_NAME>EARTH</CENTER_NAME><REF_FRAME>TEME</REF_FRAME><TIME_SYSTEM>UTC</TIME_SYSTEM><MEAN_ELEMENT_THEORY>SGP4</MEAN_ELEMENT_THEORY></metadata><data><meanElements><EPOCH>2020-09-09T12:00:00.999648</EPOCH><MEAN_MOTION>15.61425228</MEAN_MOTION><ECCENTRICITY>.0001366</ECCENTRICITY><INCLINATION>53.0004</INCLINATION><RA_OF_ASC_NODE>332.7192</RA_OF_ASC_NODE><ARG_OF_PERICENTER>54.8623</ARG_OF_PERICENTER><MEAN_ANOMALY>82.0939</MEAN_ANOMALY></meanElements><tleParameters><EPHEMERIS_TYPE>0</EPHEMERIS_TYPE><CLASSIFICATION_TYPE>U</CLASSIFICATION_TYPE><NORAD_CAT_ID>46145</NORAD_CAT_ID><ELEMENT_SET_NO>999</ELEMENT_SET_NO><REV_AT_EPOCH>412</REV_AT_EPOCH><BSTAR>-.86984E-3</BSTAR><MEAN_MOTION_DOT>-7.5463E-4</MEAN_MOTION_DOT><MEAN_MOTION_DDOT>0</MEAN_MOTION_DDOT></tleParameters></data></segment></body></omm>
<omm id="CCSDS_OMM_VERS" version="2.0">
<header><CREATION_DATE/><ORIGINATOR/></header><body><segment><metadata><OBJECT_NAME>STARLINK-1608</OBJECT_NAME><OBJECT_ID>2020-057AF</OBJECT_ID><CENTER_NAME>EARTH</CENTER_NAME><REF_FRAME>TEME</REF_FRAME><TIME_SYSTEM>UTC</TIME_SYSTEM><MEAN_ELEMENT_THEORY>SGP4</MEAN_ELEMENT_THEORY></metadata><data><meanElements><EPOCH>2020-09-09T12:00:00.999648</EPOCH><MEAN_MOTION>15.62777372</MEAN_MOTION><ECCENTRICITY>.0001322</ECCENTRICITY><INCLINATION>53.0012</INCLINATION><RA_OF_ASC_NODE>332.7324</RA_OF_ASC_NODE><ARG_OF_PERICENTER>58.2102</ARG_OF_PERICENTER><MEAN_ANOMALY>57.0411</MEAN_ANOMALY></meanElements><tleParameters><EPHEMERIS_TYPE>0</EPHEMERIS_TYPE><CLASSIFICATION_TYPE>U</CLASSIFICATION_TYPE><NORAD_CAT_ID>46146</NORAD_CAT_ID><ELEMENT_SET_NO>999</ELEMENT_SET_NO><REV_AT_EPOCH>412</REV_AT_EPOCH><BSTAR>.17662E-4</BSTAR><MEAN_MOTION_DOT>1.084E-5</MEAN_MOTION_DOT><MEAN_MOTION_DDOT>0</MEAN_MOTION_DDOT></tleParameters></data></segment></body></omm>
<omm id="CCSDS_OMM_VERS" version="2.0">
<header><CREATION_DATE/><ORIGINATOR/></header><body><segment><metadata><OBJECT_NAME>STARLINK-1611</OBJECT_NAME><OBJECT_ID>2020-057AG</OBJECT_ID><CENTER_NAME>EARTH</CENTER_NAME><REF_FRAME>TEME</REF_FRAME><TIME_SYSTEM>UTC</TIME_SYSTEM><MEAN_ELEMENT_THEORY>SGP4</MEAN_ELEMENT_THEORY></metadata><data><meanElements><EPOCH>2020-09-09T12:00:00.999648</EPOCH><MEAN_MOTION>15.62818226</MEAN_MOTION><ECCENTRICITY>.0002373</ECCENTRICITY><INCLINATION>53.0017</INCLINATION><RA_OF_ASC_NODE>332.7258</RA_OF_ASC_NODE><ARG_OF_PERICENTER>320.2418</ARG_OF_PERICENTER><MEAN_ANOMALY>161.4177</MEAN_ANOMALY></meanElements><tleParameters><EPHEMERIS_TYPE>0</EPHEMERIS_TYPE><CLASSIFICATION_TYPE>U</CLASSIFICATION_TYPE><NORAD_CAT_ID>46147</NORAD_CAT_ID><ELEMENT_SET_NO>999</ELEMENT_SET_NO><REV_AT_EPOCH>412</REV_AT_EPOCH><BSTAR>-.12927E-2</BSTAR><MEAN_MOTION_DOT>-1.1752E-3</MEAN_MOTION_DOT><MEAN_MOTION_DDOT>0</MEAN_MOTION_DDOT></tleParameters></data></segment></body></omm>
<omm id="CCSDS_OMM_VERS" version="2.0">
<header><CREATION_DATE/><ORIGINATOR/></header><body><segment><metadata><OBJECT_NAME>STARLINK-1616</OBJECT_NAME><OBJECT_ID>2020-057AH</OBJECT_ID><CENTER_NAME>EARTH</CENTER_NAME><REF_FRAME>TEME</REF_FRAME><TIME_SYSTEM>UTC</TIME_SYSTEM><MEAN_ELEMENT_THEORY>SGP4</MEAN_ELEMENT_THEORY></metadata><data><meanElements><EPOCH>2020-09-09T06:00:00.999648</EPOCH><MEAN_MOTION>15.66272309</MEAN_MOTION><ECCENTRICITY>.0001175</ECCENTRICITY><INCLINATION>53.0006</INCLINATION><RA_OF_ASC_NODE>333.6379</RA_OF_ASC_NODE><ARG_OF_PERICENTER>61.3229</ARG_OF_PERICENTER><MEAN_ANOMALY>238.6405</MEAN_ANOMALY></meanElements><tleParameters><EPHEMERIS_TYPE>0</EPHEMERIS_TYPE><CLASSIFICATION_TYPE>U</CLASSIFICATION_TYPE><NORAD_CAT_ID>46148</NORAD_CAT_ID><ELEMENT_SET_NO>999</ELEMENT_SET_NO><REV_AT_EPOCH>182</REV_AT_EPOCH><BSTAR>.22575E-3</BSTAR><MEAN_MOTION_DOT>2.3274E-4</MEAN_MOTION_DOT><MEAN_MOTION_DDOT>0</MEAN_MOTION_DDOT></tleParameters></data></segment></body></omm>
<omm id="CCSDS_OMM_VERS" version="2.0">
<header><CREATION_DATE/><ORIGINATOR/></header><body><segment><metadata><OBJECT_NAME>STARLINK-1620</OBJECT_NAME><OBJECT_ID>2020-057AJ</OBJECT_ID><CENTER_NAME>EARTH</CENTER_NAME><REF_FRAME>TEME</REF_FRAME><TIME_SYSTEM>UTC</TIME_SYSTEM><MEAN_ELEMENT_THEORY>SGP4</MEAN_ELEMENT_THEORY></metadata><data><meanElements><EPOCH>2020-09-09T12:00:00.999648</EPOCH><MEAN_MOTION>15.65164530</MEAN_MOTION><ECCENTRICITY>.0001856</ECCENTRICITY><INCLINATION>52.9986</INCLINATION><RA_OF_ASC_NODE>332.3604</RA_OF_ASC_NODE><ARG_OF_PERICENTER>25.9357</ARG_OF_PERICENTER><MEAN_ANOMALY>272.3316</MEAN_ANOMALY></meanElements><tleParameters><EPHEMERIS_TYPE>0</EPHEMERIS_TYPE><CLASSIFICATION_TYPE>U</CLASSIFICATION_TYPE><NORAD_CAT_ID>46149</NORAD_CAT_ID><ELEMENT_SET_NO>999</ELEMENT_SET_NO><REV_AT_EPOCH>412</REV_AT_EPOCH><BSTAR>.45485E-1</BSTAR><MEAN_MOTION_DOT>5.336729E-2</MEAN_MOTION_DOT><MEAN_MOTION_DDOT>0</MEAN_MOTION_DDOT></tleParameters></data></segment></body></omm>
<omm id="CCSDS_OMM_VERS" version="2.0">
<header><CREATION_DATE/><ORIGINATOR/></header><body><segment><metadata><OBJECT_NAME>STARLINK-1629</OBJECT_NAME><OBJECT_ID>2020-057AK</OBJECT_ID><CENTER_NAME>EARTH</CENTER_NAME><REF_FRAME>TEME</REF_FRAME><TIME_SYSTEM>UTC</TIME_SYSTEM><MEAN_ELEMENT_THEORY>SGP4</MEAN_ELEMENT_THEORY></metadata><data><meanElements><EPOCH>2020-09-09T12:00:00.999648</EPOCH><MEAN_MOTION>15.62749410</MEAN_MOTION><ECCENTRICITY>.0005674</ECCENTRICITY><INCLINATION>53.0012</INCLINATION><RA_OF_ASC_NODE>332.7271</RA_OF_ASC_NODE><ARG_OF_PERICENTER>296.7255</ARG_OF_PERICENTER><MEAN_ANOMALY>179.9747</MEAN_ANOMALY></meanElements><tleParameters><EPHEMERIS_TYPE>0</EPHEMERIS_TYPE><CLASSIFICATION_TYPE>U</CLASSIFICATION_TYPE><NORAD_CAT_ID>46150</NORAD_CAT_ID><ELEMENT_SET_NO>999</ELEMENT_SET_NO><REV_AT_EPOCH>412</REV_AT_EPOCH><BSTAR>.20216E-4</BSTAR><MEAN_MOTION_DOT>1.312E-5</MEAN_MOTION_DOT><MEAN_MOTION_DDOT>0</MEAN_MOTION_DDOT></tleParameters></data></segment></body></omm>
<omm id="CCSDS_OMM_VERS" version="2.0">
<header><CREATION_DATE/><ORIGINATOR/></header><body><segment><metadata><OBJECT_NAME>STARLINK-1631</OBJECT_NAME><OBJECT_ID>2020-057AL</OBJECT_ID><CENTER_NAME>EARTH</CENTER_NAME><REF_FRAME>TEME</REF_FRAME><TIME_SYSTEM>UTC</TIME_SYSTEM><MEAN_ELEMENT_THEORY>SGP4</MEAN_ELEMENT_THEORY></metadata><data><meanElements><EPOCH>2020-09-09T12:00:00.999648</EPOCH><MEAN_MOTION>15.72344019</MEAN_MOTION><ECCENTRICITY>.0002138</ECCENTRICITY><INCLINATION>52.9980</INCLINATION><RA_OF_ASC_NODE>331.4759</RA_OF_ASC_NODE><ARG_OF_PERICENTER>63.7232</ARG_OF_PERICENTER><MEAN_ANOMALY>298.0291</MEAN_ANOMALY></meanElements><tleParameters><EPHEMERIS_TYPE>0</EPHEMERIS_TYPE><CLASSIFICATION_TYPE>U</CLASSIFICATION_TYPE><NORAD_CAT_ID>46151</NORAD_CAT_ID><ELEMENT_SET_NO>999</ELEMENT_SET_NO><REV_AT_EPOCH>413</REV_AT_EPOCH><BSTAR>.84388E-5</BSTAR><MEAN_MOTION_DOT>5.28E-6</MEAN_MOTION_DOT><MEAN_MOTION_DDOT>0</MEAN_MOTION_DDOT></tleParameters></data></segment></body></omm>

</ndm>
